[{"OBJECT_NAME":"STARLINK-34601","OBJECT_ID":"2025-167G","EPOCH":"2026-03-09T04:57:28.475712","MEAN_MOTION":15.30186675,"ECCENTRICITY":0.00012305,"INCLINATION":53.1619,"RA_OF_ASC_NODE":29.0619,"ARG_OF_PERICENTER":87.4764,"MEAN_ANOMALY":272.6377,"EPHEMERIS_TYPE":0,"CLASSIFICATION_TYPE":"U","NORAD_CAT_ID":65084,"ELEMENT_SET_NO":999,"REV_AT_EPOCH":3340,"BSTAR":0.00065799119,"MEAN_MOTION_DOT":0.00019171,"MEAN_MOTION_DDOT":0},{"OBJECT_NAME":"FENGYUN 1C DEB","OBJECT_ID":"1999-025FBF","EPOCH":"2026-03-06T07:33:49.292640","MEAN_MOTION":15.04395515,"ECCENTRICITY":0.01189701,"INCLINATION":98.9505,"RA_OF_ASC_NODE":84.7158,"ARG_OF_PERICENTER":75.0888,"MEAN_ANOMALY":286.3472,"EPHEMERIS_TYPE":0,"CLASSIFICATION_TYPE":"U","NORAD_CAT_ID":47029,"ELEMENT_SET_NO":999,"REV_AT_EPOCH":4330,"BSTAR":0.0027080259,"MEAN_MOTION_DOT":0.00044409,"MEAN_MOTION_DDOT":0}]
